[{"COMMENT":"GENERATED VIA SPACETRACK.ORG API","ORIGINATOR":"18 SPCS","NORAD_CAT_ID":"43476","OBJECT_NAME":"GRACE-FO 1","OBJECT_TYPE":"PAYLOAD","CLASSIFICATION_TYPE":"U","INTLDES":"18047A","EPOCH":"2023-01-04 03:47:21","EPOCH_MICROSECONDS":"90336","MEAN_MOTION":"15.24783698","ECCENTRICITY":"0.0011994","INCLINATION":"88.9887","RA_OF_ASC_NODE":"11.3412","ARG_OF_PERICENTER":"314.686","MEAN_ANOMALY":"45.341","EPHEMERIS_TYPE":"0","ELEMENT_SET_NO":"999","REV_AT_EPOCH":"25699","BSTAR":"0.00010376","MEAN_MOTION_DOT":"0.00002604","MEAN_MOTION_DDOT":"0","FILE":"3731000","TLE_LINE0":"0 GRACE-FO 1","TLE_LINE1":"1 43476U 18047A   23004.15788299  .00002604  00000-0  10376-3 0  9994","TLE_LINE2":"2 43476  88.9887  11.3412 0011994 314.6860  45.3410 15.24783698256999","OBJECT_ID":"2018-047A","OBJECT_NUMBER":"43476","SEMIMAJOR_AXIS":"6869.572","PERIOD":"94.440","APOGEE":"499.676","PERIGEE":"483.198","DECAYED":"0"},{"COMMENT":"GENERATED VIA SPACETRACK.ORG API","ORIGINATOR":"18 SPCS","NORAD_CAT_ID":"43476","OBJECT_NAME":"GRACE-FO 1","OBJECT_TYPE":"PAYLOAD","CLASSIFICATION_TYPE":"U","INTLDES":"18047A","EPOCH":"2023-01-04 13:14:23","EPOCH_MICROSECONDS":"4096","MEAN_MOTION":"15.2478765","ECCENTRICITY":"0.0011937","INCLINATION":"88.9886","RA_OF_ASC_NODE":"11.2878","ARG_OF_PERICENTER":"312.8722","MEAN_ANOMALY":"47.1522","EPHEMERIS_TYPE":"0","ELEMENT_SET_NO":"999","REV_AT_EPOCH":"25705","BSTAR":"0.00012568","MEAN_MOTION_DOT":"0.00003148","MEAN_MOTION_DDOT":"0","FILE":"3731823","TLE_LINE0":"0 GRACE-FO 1","TLE_LINE1":"1 43476U 18047A   23004.55165514  .00003148  00000-0  12568-3 0  9996","TLE_LINE2":"2 43476  88.9886  11.2878 0011937 312.8722  47.1522 15.24787650257051","OBJECT_ID":"2018-047A","OBJECT_NUMBER":"43476","SEMIMAJOR_AXIS":"6869.560","PERIOD":"94.439","APOGEE":"499.625","PERIGEE":"483.225","DECAYED":"0"},{"COMMENT":"GENERATED VIA SPACETRACK.ORG API","ORIGINATOR":"18 SPCS","NORAD_CAT_ID":"43476","OBJECT_NAME":"GRACE-FO 1","OBJECT_TYPE":"PAYLOAD","CLASSIFICATION_TYPE":"U","INTLDES":"18047A","EPOCH":"2023-01-04 21:06:54","EPOCH_MICROSECONDS":"595584","MEAN_MOTION":"15.24788866","ECCENTRICITY":"0.0011888","INCLINATION":"88.9885","RA_OF_ASC_NODE":"11.2433","ARG_OF_PERICENTER":"311.351","MEAN_ANOMALY":"48.6715","EPHEMERIS_TYPE":"0","ELEMENT_SET_NO":"999","REV_AT_EPOCH":"25710","BSTAR":"0.00011818","MEAN_MOTION_DOT":"0.00002962","MEAN_MOTION_DDOT":"0","FILE":"3732134","TLE_LINE0":"0 GRACE-FO 1","TLE_LINE1":"1 43476U 18047A   23004.87979856  .00002962  00000-0  11818-3 0  9993","TLE_LINE2":"2 43476  88.9885  11.2433 0011888 311.3510  48.6715 15.24788866257107","OBJECT_ID":"2018-047A","OBJECT_NUMBER":"43476","SEMIMAJOR_AXIS":"6869.557","PERIOD":"94.439","APOGEE":"499.588","PERIGEE":"483.255","DECAYED":"0"},{"COMMENT":"GENERATED VIA SPACETRACK.ORG API","ORIGINATOR":"18 SPCS","NORAD_CAT_ID":"43476","OBJECT_NAME":"GRACE-FO 1","OBJECT_TYPE":"PAYLOAD","CLASSIFICATION_TYPE":"U","INTLDES":"18047A","EPOCH":"2023-01-05 12:51:57","EPOCH_MICROSECONDS":"636000","MEAN_MOTION":"15.24792622","ECCENTRICITY":"0.0011796","INCLINATION":"88.9885","RA_OF_ASC_NODE":"11.1542","ARG_OF_PERICENTER":"308.2974","MEAN_ANOMALY":"51.7212","EPHEMERIS_TYPE":"0","ELEMENT_SET_NO":"999","REV_AT_EPOCH":"25720","BSTAR":"0.0001174","MEAN_MOTION_DOT":"0.00002943","MEAN_MOTION_DDOT":"0","FILE":"3732745","TLE_LINE0":"0 GRACE-FO 1","TLE_LINE1":"1 43476U 18047A   23005.53608375  .00002943  00000-0  11740-3 0  9995","TLE_LINE2":"2 43476  88.9885  11.1542 0011796 308.2974  51.7212 15.24792622257207","OBJECT_ID":"2018-047A","OBJECT_NUMBER":"43476","SEMIMAJOR_AXIS":"6869.545","PERIOD":"94.439","APOGEE":"499.514","PERIGEE":"483.307","DECAYED":"0"},{"COMMENT":"GENERATED VIA SPACETRACK.ORG API","ORIGINATOR":"18 SPCS","NORAD_CAT_ID":"43476","OBJECT_NAME":"GRACE-FO 1","OBJECT_TYPE":"PAYLOAD","CLASSIFICATION_TYPE":"U","INTLDES":"18047A","EPOCH":"2023-01-05 12:51:57","EPOCH_MICROSECONDS":"636000","MEAN_MOTION":"15.24792622","ECCENTRICITY":"0.0011796","INCLINATION":"88.9885","RA_OF_ASC_NODE":"11.1542","ARG_OF_PERICENTER":"308.2974","MEAN_ANOMALY":"51.7212","EPHEMERIS_TYPE":"0","ELEMENT_SET_NO":"999","REV_AT_EPOCH":"25720","BSTAR":"0.0001174","MEAN_MOTION_DOT":"0.00002943","MEAN_MOTION_DDOT":"0","FILE":"3732939","TLE_LINE0":"0 GRACE-FO 1","TLE_LINE1":"1 43476U 18047A   23005.53608375  .00002943  00000-0  11740-3 0  9995","TLE_LINE2":"2 43476  88.9885  11.1542 0011796 308.2974  51.7212 15.24792622257207","OBJECT_ID":"2018-047A","OBJECT_NUMBER":"43476","SEMIMAJOR_AXIS":"6869.545","PERIOD":"94.439","APOGEE":"499.514","PERIGEE":"483.307","DECAYED":"0"},{"COMMENT":"GENERATED VIA SPACETRACK.ORG API","ORIGINATOR":"18 SPCS","NORAD_CAT_ID":"43476","OBJECT_NAME":"GRACE-FO 1","OBJECT_TYPE":"PAYLOAD","CLASSIFICATION_TYPE":"U","INTLDES":"18047A","EPOCH":"2023-01-05 19:09:58","EPOCH_MICROSECONDS":"817088","MEAN_MOTION":"15.24794108","ECCENTRICITY":"0.0011757","INCLINATION":"88.9885","RA_OF_ASC_NODE":"11.1186","ARG_OF_PERICENTER":"307.0668","MEAN_ANOMALY":"52.9504","EPHEMERIS_TYPE":"0","ELEMENT_SET_NO":"999","REV_AT_EPOCH":"25724","BSTAR":"0.00011704","MEAN_MOTION_DOT":"0.00002934","MEAN_MOTION_DDOT":"0","FILE":"3732963","TLE_LINE0":"0 GRACE-FO 1","TLE_LINE1":"1 43476U 18047A   23005.79859742  .00002934  00000-0  11704-3 0  9999","TLE_LINE2":"2 43476  88.9885  11.1186 0011757 307.0668  52.9504 15.24794108257247","OBJECT_ID":"2018-047A","OBJECT_NUMBER":"43476","SEMIMAJOR_AXIS":"6869.541","PERIOD":"94.439","APOGEE":"499.482","PERIGEE":"483.329","DECAYED":"0"},{"COMMENT":"GENERATED VIA SPACETRACK.ORG API","ORIGINATOR":"18 SPCS","NORAD_CAT_ID":"43476","OBJECT_NAME":"GRACE-FO 1","OBJECT_TYPE":"PAYLOAD","CLASSIFICATION_TYPE":"U","INTLDES":"18047A","EPOCH":"2023-01-06 18:47:32","EPOCH_MICROSECONDS":"987616","MEAN_MOTION":"15.2480039","ECCENTRICITY":"0.001163","INCLINATION":"88.9885","RA_OF_ASC_NODE":"10.985","ARG_OF_PERICENTER":"302.5263","MEAN_ANOMALY":"57.486","EPHEMERIS_TYPE":"0","ELEMENT_SET_NO":"999","REV_AT_EPOCH":"25739","BSTAR":"0.00011623","MEAN_MOTION_DOT":"0.00002915","MEAN_MOTION_DDOT":"0","FILE":"3734116","TLE_LINE0":"0 GRACE-FO 1","TLE_LINE1":"1 43476U 18047A   23006.78302069  .00002915  00000-0  11623-3 0  9993","TLE_LINE2":"2 43476  88.9885  10.9850 0011630 302.5263  57.4860 15.24800390257395","OBJECT_ID":"2018-047A","OBJECT_NUMBER":"43476","SEMIMAJOR_AXIS":"6869.522","PERIOD":"94.439","APOGEE":"499.376","PERIGEE":"483.398","DECAYED":"0"},{"COMMENT":"GENERATED VIA SPACETRACK.ORG API","ORIGINATOR":"18 SPCS","NORAD_CAT_ID":"43476","OBJECT_NAME":"GRACE-FO 1","OBJECT_TYPE":"PAYLOAD","CLASSIFICATION_TYPE":"U","INTLDES":"18047A","EPOCH":"2023-01-06 21:56:33","EPOCH_MICROSECONDS":"512064","MEAN_MOTION":"15.24801589","ECCENTRICITY":"0.0011615","INCLINATION":"88.9885","RA_OF_ASC_NODE":"10.9673","ARG_OF_PERICENTER":"301.9072","MEAN_ANOMALY":"58.1045","EPHEMERIS_TYPE":"0","ELEMENT_SET_NO":"999","REV_AT_EPOCH":"25741","BSTAR":"0.00011853","MEAN_MOTION_DOT":"0.00002972","MEAN_MOTION_DDOT":"0","FILE":"3734255","TLE_LINE0":"0 GRACE-FO 1","TLE_LINE1":"1 43476U 18047A   23006.91427676  .00002972  00000-0  11853-3 0  9998","TLE_LINE2":"2 43476  88.9885  10.9673 0011615 301.9072  58.1045 15.24801589257419","OBJECT_ID":"2018-047A","OBJECT_NUMBER":"43476","SEMIMAJOR_AXIS":"6869.518","PERIOD":"94.439","APOGEE":"499.362","PERIGEE":"483.404","DECAYED":"0"},{"COMMENT":"GENERATED VIA SPACETRACK.ORG API","ORIGINATOR":"18 SPCS","NORAD_CAT_ID":"43476","OBJECT_NAME":"GRACE-FO 1","OBJECT_TYPE":"PAYLOAD","CLASSIFICATION_TYPE":"U","INTLDES":"18047A","EPOCH":"2023-01-07 05:49:04","EPOCH_MICROSECONDS":"821888","MEAN_MOTION":"15.24804177","ECCENTRICITY":"0.001158","INCLINATION":"88.9886","RA_OF_ASC_NODE":"10.9227","ARG_OF_PERICENTER":"300.3644","MEAN_ANOMALY":"59.6458","EPHEMERIS_TYPE":"0","ELEMENT_SET_NO":"999","REV_AT_EPOCH":"25746","BSTAR":"0.00012532","MEAN_MOTION_DOT":"0.0000314","MEAN_MOTION_DDOT":"0","FILE":"3735161","TLE_LINE0":"0 GRACE-FO 1","TLE_LINE1":"1 43476U 18047A   23007.24241692  .00003140  00000-0  12532-3 0  9990","TLE_LINE2":"2 43476  88.9886  10.9227 0011580 300.3644  59.6458 15.24804177257469","OBJECT_ID":"2018-047A","OBJECT_NUMBER":"43476","SEMIMAJOR_AXIS":"6869.511","PERIOD":"94.438","APOGEE":"499.330","PERIGEE":"483.421","DECAYED":"0"},{"COMMENT":"GENERATED VIA SPACETRACK.ORG API","ORIGINATOR":"18 SPCS","NORAD_CAT_ID":"43476","OBJECT_NAME":"GRACE-FO 1","OBJECT_TYPE":"PAYLOAD","CLASSIFICATION_TYPE":"U","INTLDES":"18047A","EPOCH":"2023-01-07 21:34:07","EPOCH_MICROSECONDS":"324896","MEAN_MOTION":"15.2480828","ECCENTRICITY":"0.0011507","INCLINATION":"88.9887","RA_OF_ASC_NODE":"10.8337","ARG_OF_PERICENTER":"297.3065","MEAN_ANOMALY":"62.7011","EPHEMERIS_TYPE":"0","ELEMENT_SET_NO":"999","REV_AT_EPOCH":"25756","BSTAR":"0.00012494","MEAN_MOTION_DOT":"0.00003131","MEAN_MOTION_DDOT":"0","FILE":"3735488","TLE_LINE0":"0 GRACE-FO 1","TLE_LINE1":"1 43476U 18047A   23007.89869589  .00003131  00000-0  12494-3 0  9999","TLE_LINE2":"2 43476  88.9887  10.8337 0011507 297.3065  62.7011 15.24808280257562","OBJECT_ID":"2018-047A","OBJECT_NUMBER":"43476","SEMIMAJOR_AXIS":"6869.498","PERIOD":"94.438","APOGEE":"499.268","PERIGEE":"483.458","DECAYED":"0"}]